H1 CPF 01  gfz 2021 10 29 00  8021 terrasarx 
H2 0702601  6201 31698    2021 10 29 00 59 42 2021 11 03 00 00 42   120 1 1  0 0 0
H9
10 0 59518  62622.000000  0    2898534.931   1293914.716  -6120623.561
10 0 59518  62742.000000  0    3696088.595   1332069.314  -5665632.963
10 0 59518  62862.000000  0    4429842.275   1333706.135  -5111610.892
10 0 59518  62982.000000  0    5086355.747   1300007.796  -4468153.364
10 0 59518  63102.000000  0    5653528.775   1232993.287  -3746436.104
10 0 59518  63222.000000  0    6120832.544   1135460.549  -2959029.387
10 0 59518  63342.000000  0    6479516.346   1010911.269  -2119686.010
10 0 59518  63462.000000  0    6722784.614    863459.697  -1243103.509
10 0 59518  63582.000000  0    6845937.414    697726.510   -344664.650
10 0 59518  63702.000000  0    6846469.957    518720.874    559837.568
10 0 59518  63822.000000  0    6724129.745    331714.058   1454484.014
10 0 59518  63942.000000  0    6480929.470    142105.934   2323518.627
10 0 59518  64062.000000  0    6121112.320    -44710.410   3151635.550
10 0 59518  64182.000000  0    5651072.563   -223483.670   3924256.145
10 0 59518  64302.000000  0    5079233.244   -389233.670   4627789.851
10 0 59518  64422.000000  0    4415886.882   -537373.500   5249876.180
10 0 59518  64542.000000  0    3672998.427   -663821.420   5779601.233
10 0 59518  64662.000000  0    2863980.103   -765098.419   6207684.666
10 0 59518  64782.000000  0    2003442.084   -838411.117   6526636.841
10 0 59518  64902.000000  0    1106924.290   -881718.024   6730884.585
10 0 59518  65022.000000  0     190611.803   -893778.094   6816863.360
10 0 59518  65142.000000  0    -728958.280   -874180.215   6783074.176
10 0 59518  65262.000000  0   -1635194.156   -823354.001   6630107.156
10 0 59518  65382.000000  0   -2511747.065   -742560.721   6360631.457
10 0 59518  65502.000000  0   -3342804.774   -633865.027   5979352.253
10 0 59518  65622.000000  0   -4113378.539   -500087.754   5492935.094
10 0 59518  65742.000000  0   -4809578.503   -344741.199   4909896.061
10 0 59518  65862.000000  0   -5418871.216   -171947.351   4240457.856
10 0 59518  65982.000000  0   -5930313.798     13659.154   3496374.286
10 0 59518  66102.000000  0   -6334759.414    207041.610   2690726.278
10 0 59518  66222.000000  0   -6625031.421    402883.319   1837692.098
10 0 59518  66342.000000  0   -6796060.146    595717.791    952294.072
10 0 59518  66462.000000  0   -6844978.494    780063.567     50127.304
10 0 59518  66582.000000  0   -6771172.971    950560.934   -852923.969
10 0 59518  66702.000000  0   -6576288.052   1102106.546  -1740975.244
10 0 59518  66822.000000  0   -6264186.023   1229982.171  -2598427.991
10 0 59518  66942.000000  0   -5840864.631   1329976.072  -3410250.996
10 0 59518  67062.000000  0   -5314329.332   1398491.658  -4162248.529
10 0 59518  67182.000000  0   -4694428.798   1432641.583  -4841307.326
10 0 59518  67302.000000  0   -3992658.290   1430325.664  -5435620.407
10 0 59518  67422.000000  0   -3221936.276   1390290.890  -5934883.559
10 0 59518  67542.000000  0   -2396360.028   1312172.194  -6330463.729
10 0 59518  67662.000000  0   -1530944.179   1196514.152  -6615537.310
10 0 59518  67782.000000  0    -641347.155   1044773.602  -6785195.944
10 0 59518  67902.000000  0     256407.555    859302.414  -6836520.822
10 0 59518  68022.000000  0    1146211.956    643312.051  -6768627.991
10 0 59518  68142.000000  0    2012156.586    400818.987  -6582684.236
10 0 59518  68262.000000  0    2838809.092    136572.108  -6281888.531
10 0 59518  68382.000000  0    3611484.933   -144036.276  -5871423.106
10 0 59518  68502.000000  0    4316505.605   -435075.925  -5358372.100
10 0 59518  68622.000000  0    4941441.568   -730197.923  -4751611.345
10 0 59518  68742.000000  0    5475337.957  -1022766.960  -4061666.483
10 0 59518  68862.000000  0    5908915.315  -1306003.515  -3300539.906
10 0 59518  68982.000000  0    6234741.885  -1573133.565  -2481509.451
10 0 59518  69102.000000  0    6447373.321  -1817542.657  -1618900.929
10 0 59518  69222.000000  0    6543455.250  -2032930.382   -727837.686
10 0 59518  69342.000000  0    6521785.695  -2213461.142    176027.572
10 0 59518  69462.000000  0    6383335.312  -2353908.033   1076794.099
10 0 59518  69582.000000  0    6131223.543  -2449784.968   1958601.556
10 0 59518  69702.000000  0    5770650.773  -2497464.596   2805918.507
10 0 59518  69822.000000  0    5308788.888  -2494278.035   3603824.603
10 0 59518  69942.000000  0    4754631.577  -2438593.768   4338279.277
10 0 59518  70062.000000  0    4118812.110  -2329874.190   4996370.851
10 0 59518  70182.000000  0    3413391.993  -2168709.785   5566545.375
10 0 59518  70302.000000  0    2651622.337  -1956828.769   6038807.490
10 0 59518  70422.000000  0    1847688.103  -1697082.261   6404890.178
10 0 59518  70542.000000  0    1016439.210  -1393406.758   6658393.613
10 0 59518  70662.000000  0     173113.101  -1050763.778   6794891.184
10 0 59518  70782.000000  0    -666945.379   -675057.580   6812001.197
10 0 59518  70902.000000  0   -1488562.014   -273033.218   6709424.989
10 0 59518  71022.000000  0   -2277005.919    147844.206   6488951.775
10 0 59518  71142.000000  0   -3018252.677    579527.448   6154429.874
10 0 59518  71262.000000  0   -3699234.646   1013539.734   5711704.438
10 0 59518  71382.000000  0   -4308075.020   1441139.641   5168521.852
10 0 59518  71502.000000  0   -4834301.072   1853495.882   4534400.211
10 0 59518  71622.000000  0   -5269031.795   2241869.211   3820467.238
10 0 59518  71742.000000  0   -5605135.542   2597796.732   3039267.752
10 0 59518  71862.000000  0   -5837354.574   2913274.865   2204544.375
10 0 59518  71982.000000  0   -5962394.514   3180937.055   1330994.180
10 0 59518  72102.000000  0   -5978975.107   3394222.020    434003.943
10 0 59518  72222.000000  0   -5887838.688   3547526.693   -470628.850
10 0 59518  72342.000000  0   -5691718.464   3636340.511  -1366982.627
10 0 59518  72462.000000  0   -5395267.486   3657358.530  -2239301.249
10 0 59518  72582.000000  0   -5004947.020   3608568.768  -3072279.653
10 0 59518  72702.000000  0   -4528880.233   3489312.599  -3851337.190
10 0 59518  72822.000000  0   -3976674.769   3300316.730  -4562873.482
10 0 59518  72942.000000  0   -3359220.919   3043697.245  -5194502.377
10 0 59518  73062.000000  0   -2688469.936   2722935.903  -5735259.636
10 0 59518  73182.000000  0   -1977199.198   2342830.815  -6175784.152
10 0 59518  73302.000000  0   -1238765.609   1909421.072  -6508469.543
10 0 59518  73422.000000  0    -486855.591   1429888.193  -6727583.057
10 0 59518  73542.000000  0     264764.730    912436.601  -6829354.243
10 0 59518  73662.000000  0    1002494.943    366155.266  -6812032.927
10 0 59518  73782.000000  0    1713141.641   -199138.743  -6675917.610
10 0 59518  73902.000000  0    2384149.035   -773072.751  -6423349.445
10 0 59518  74022.000000  0    3003816.208  -1344903.714  -6058676.830
10 0 59518  74142.000000  0    3561499.086  -1903714.067  -5588187.989
10 0 59518  74262.000000  0    4047794.441  -2438616.102  -5020014.384
10 0 59518  74382.000000  0    4454703.155  -2938963.306  -4364000.922
10 0 59518  74502.000000  0    4775766.967  -3394562.194  -3631545.369
10 0 59518  74622.000000  0    5006178.418  -3795880.706  -2835409.693
10 0 59518  74742.000000  0    5142861.279  -4134249.900  -1989503.546
10 0 59518  74862.000000  0    5184517.335  -4402052.821  -1108643.067
10 0 59518  74982.000000  0    5131638.672  -4592896.769   -208289.614
10 0 59518  75102.000000  0    4986483.267  -4701764.103    695727.040
10 0 59518  75222.000000  0    4753014.428  -4725136.047   1587495.314
10 0 59518  75342.000000  0    4436805.137  -4661086.147   2451310.998
10 0 59518  75462.000000  0    4044910.587  -4509341.569   3271961.923
10 0 59518  75582.000000  0    3585712.057  -4271310.973   4035002.929
10 0 59518  75702.000000  0    3068735.104  -3950077.955   4727015.086
10 0 59518  75822.000000  0    2504448.102  -3550359.711   5335843.207
10 0 59518  75942.000000  0    1904046.562  -3078434.066   5850808.182
10 0 59518  76062.000000  0    1279226.728  -2542035.055   6262890.901
10 0 59518  76182.000000  0     641954.996  -1950221.132   6564883.848
10 0 59518  76302.000000  0       4237.185  -1313218.781   6751510.807
10 0 59518  76422.000000  0    -622107.260   -642243.610   6819513.620
10 0 59518  76542.000000  0   -1225663.184     50698.304   6767705.179
10 0 59518  76662.000000  0   -1795626.946    753024.842   6596988.766
10 0 59518  76782.000000  0   -2321999.215   1451805.536   6310343.238
10 0 59518  76902.000000  0   -2795760.860   2133998.617   5912774.347
10 0 59518  77022.000000  0   -3209028.983   2786694.333   5411233.176
10 0 59518  77142.000000  0   -3555191.514   3397361.044   4814501.129
10 0 59518  77262.000000  0   -3829017.394   3954088.753   4133041.973
10 0 59518  77382.000000  0   -4026739.561   4445826.365   3378822.912
10 0 59518  77502.000000  0   -4146108.929   4862607.194   2565106.256
10 0 59518  77622.000000  0   -4186417.227   5195756.306   1706214.184
10 0 59518  77742.000000  0   -4148488.240   5438074.662    817272.846
10 0 59518  77862.000000  0   -4034638.771   5583996.211    -86059.704
10 0 59518  77982.000000  0   -3848608.961   5629714.305   -987878.251
10 0 59518  78102.000000  0   -3595462.191   5573271.474  -1872321.211
10 0 59518  78222.000000  0   -3281458.052   5414610.368  -2723858.421
10 0 59518  78342.000000  0   -2913902.011   5155587.229  -3527569.419
10 0 59518  78462.000000  0   -2500977.671   4799945.584  -4269407.381
10 0 59518  78582.000000  0   -2051564.835   4353253.251  -4936442.605
10 0 59518  78702.000000  0   -1575048.851   3822805.961  -5517080.938
10 0 59518  78822.000000  0   -1081125.933   3217500.575  -6001257.473
10 0 59518  78942.000000  0    -579607.157   2547678.256  -6380601.768
10 0 59518  79062.000000  0     -80225.807   1824942.624  -6648570.654
99
